#dP2022  9 26  0  0  0.00000000      97 __u+U IGS14 FIT  IAC
## 2229  86400.00000000   900.00000000 59848 0.0000000000000
+  117   C06C07C08C09C10C11C12C13C14C16C19C20C21C22C23C24C25
+        C26C27C28C29C30C32C33C34C35C36C37C38C39C40C41C42C43
+        C44C45C46E01E02E03E04E05E07E08E09E10E11E12E13E14E15
+        E18E19E21E24E25E26E27E30E31E33E34E36G01G02G03G04G05
+        G06G07G08G09G10G11G12G13G14G15G16G17G18G19G20G21G22
+        G23G24G25G26G27G28G29G30G31G32J02J03R01R02R03R04R05
+        R07R08R09R11R12R13R14R15R17R18R19R20R21R24R25  0  0
++         7  7  7  8  7  6  6  7  7  7  5  5  6  6  5  6  5
++         6  6  5  5  6  5  6  6  5  6  6  6  6  6  6  6  6
++         6  6  6  4  4  4  4  4  4  4  4  4  4  4  4  5  4
++         4  5  4  4  4  4  4  4  4  4  4  4  3  4  3  3  3
++         3  4  3  3  3  3  3  3  3  4  3  3  3  3  3  4  4
++         4  3  3  3  3  4  3  3  3  3  9  9  6  6  6  6  6
++         6  6  6  6  6  7  6  6  6  6  7  7  6  6  9  0  0
%c M  cc GPS ccc cccc cccc cccc cccc ccccc ccccc ccccc ccccc
%c cc cc ccc ccc cccc cccc cccc cccc ccccc ccccc ccccc ccccc
%f  1.2500000  1.025000000  0.00000000000  0.000000000000000
%f  0.0000000  0.000000000  0.00000000000  0.000000000000000
%i    0    0    0    0      0      0      0      0         0
%i    0    0    0    0      0      0      0      0         0
/* INFORMATION & ANALYSIS CENTER (IAC)            FINAL DATA
/* S/V CLOCKS ARE ALIGNED TO GNSS TIME                      
/* G:C1WC2W R:C1PC2P E:C1XC5X C:C2IC6I J:C1CC2S             
/* PCV:IGS14_2218 OL/AL:FES2004  NONE     YN ORB:CoN CLK:CoN
*  2022 09 26 14 45  0.00000000
PC06 -17708.824612  36125.352182  12229.541652    913.289178
PC07  -3527.673103  35028.375760  23364.135760   -194.401365
PC08 -11032.639180  19225.769845 -35899.210522    480.961600
PC09 -10406.221551  34844.395281  21273.390008   -852.156827
PC10   3068.416842  38156.796259  18523.344455     91.805293
PC11 -14265.880058  23911.228510  -2102.343314   -386.277978
PC12 -19937.502403  13009.839033  14618.241831   -504.411690
PC13  -1974.840520  22055.277465 -35760.447976     90.980003
PC14  -3670.569459  20387.943065 -18712.995062    678.896764
PC16 -20519.462600  35686.170889   8618.972467    134.777126
PC19  -4164.978221 -24910.342180  11866.480731   -741.410844
PC20   9688.973558 -13984.238687  22118.187418    794.481981
PC21 -18685.955159  -6165.034828 -19774.611793   -477.286589
PC22 -16233.731167 -21939.778852  -5772.047610   -794.393214
PC23  17979.548332  12894.054462  17013.497713   -269.017587
PC24 -21925.382947   9578.885000  14381.113502   -327.921623
PC25  -1216.183572  16243.627675  22654.326393      1.059738
PC26 -27906.086165   -818.991831   -695.785052    -13.017198
PC27  19105.131041  -4248.056109 -19913.709725     26.815406
PC28   9495.636354  13820.423263 -22304.771090     17.437399
PC29   5592.616215 -24924.823282  11223.615949     18.763359
PC30  17590.647537 -20577.484967  -6811.471499      0.146551
PC32  18774.874558   6132.320446  19722.476162   -785.764370
PC33   4238.081380  24878.463551 -11928.850654   -760.654366
PC34 -17178.558402  21221.475642   5722.272863      3.450533
PC35  -9000.301513 -14784.589598  21886.808768     14.552777
PC36   2255.201466 -16157.884224 -22611.465540   -396.220577
PC37  27729.344355   2323.523432   1937.230588   -317.803499
PC38 -19501.898930  19334.965877 -32034.464689     26.940097
PC39 -22020.897422  35727.910871   2763.910883     -0.511820
PC40  -7055.491384  31208.816487  27567.155814     -4.884736
PC41  16121.583389  22166.508495   5284.626583   -115.311362
PC42 -10474.404447  12978.317358 -22341.772799   -365.219300
PC43  -6199.047340  25071.647722 -10559.437913     16.357336
PC44 -18972.378456   4647.961062  19909.494375     62.503685
PC45 -18336.225008 -12641.481557 -16823.282887     -2.494638
PC46  20550.775390 -10428.362507 -15702.443657     -2.404603
PE01 -25093.366850  -3633.249407  15287.549928   -535.511082
PE02  25016.278426   3479.612823 -15416.058489    327.078245
PE03  16902.855953  -5385.824219  23685.423088   -603.755749
PE04 -10475.934819  24154.142047 -13528.745688  -1123.801268
PE05  13530.977874  16958.510754  20134.786656   -140.279837
PE07  -2351.460306 -29084.969374  -4943.762628   -708.464987
PE08  10286.811323 -24229.002759  13522.816301   -605.282975
PE09   2307.748548  29119.102883   4831.479034   -672.211768
PE10 -12163.662885  19879.359331 -18267.288444   -479.519277
PE11  -1053.598651  17871.562226 -23583.753063   2055.954194
PE12 -20536.731795  18580.331509 -10446.112341   -190.179733
PE13   1944.756303 -18084.886730  23351.916237    430.622202
PE14  19833.443474    752.900483 -23584.287646     10.689437
PE15  20668.948494 -18536.460265  10258.970547    717.914513
PE18 -15827.413413  15292.710232  14881.651205   -931.112205
PE19 -16928.405953   2312.144966 -24170.992889  -4426.582374
PE21 -24484.719848 -16584.486487  -1314.561857   -759.977793
PE24   8690.061738  20996.619038  18951.662897   -858.268751
PE25  24345.714550  16753.611838   1632.767117   -588.666454
PE26 -18526.697383  -6543.387590  22144.230530  -1657.969527
PE27  -9835.975566 -21058.524321 -18324.530248   -401.227699
PE30  11335.786893 -12543.990813 -24296.050671   -868.055253
PE31 -10480.214619  13097.411761  24403.150733   -504.411298
PE33 -27090.627142   8045.675086   8813.154916   -454.110027
PE34  27082.070389  -8209.152282  -8655.527026     -6.458806
PE36  17735.234153   7039.115555 -22628.152847   -437.145296
PG01  -2132.162167  15978.616969 -21345.385981    277.357218
PG02   8055.112090 -18283.597583  18240.349087   -644.670608
PG03   5868.493197  19336.316676 -17416.792589   -356.883828
PG04   -567.461038  25978.235418   5251.465033   -112.912882
PG05   5742.268153 -14246.986641  21480.429245    -98.124444
PG06  25196.598082  -6222.425382  -5759.865758    473.241526
PG07  14448.285892   9881.658031  20523.607649    304.315418
PG08  -5967.586251  25243.131091   4690.075788    -86.251944
PG09   8351.570939  20305.865115  14841.705745   -291.148737
PG10 -23087.406535 -10208.229980  -8599.142368     -4.944817
PG11  22970.265256 -12153.018083   5395.332125    -19.728850
PG12  -3868.945586 -19692.511337 -17716.632785   -284.473859
PG13  13069.155026 -20334.467388  10622.599918    394.861028
PG14  22646.200915  12026.857588  -7133.557759   -100.558912
PG15   2870.138948 -25869.141760   3976.848861    -25.836706
PG16 -12968.559910   8177.764253  21456.803840   -525.095941
PG17  13389.853217   6895.071196 -21433.336739    662.971342
PG18 -15102.243634  -8733.221199  20063.300031     35.402204
PG19  15733.880278  -4288.708867 -21150.745421    215.854520
PG20  17973.151080  -5678.308210  18630.533177    483.256550
PG21 -10782.516498  17759.682134 -15490.084931    158.924219
PG22 -15612.795763   7837.494175 -19536.129575    334.823231
PG23 -21039.837429 -16269.039205   1348.739062     -0.473144
PG24   5269.241285 -18273.768446 -18694.664119    121.899948
PG25 -15304.934359 -19853.503444  -9471.343513    376.146478
PG26 -20243.093899   1640.946481  17189.683011    230.134461
PG27 -12448.658887  17836.084891  14747.003198    206.863921
PG28  20947.713809   5509.763763 -14698.340523    335.346726
PG29  -5515.403510 -21460.744555  14537.710969   -554.797546
PG30  22816.294541   1782.632778  13781.808032   -537.152732
PG31 -25624.403073   6339.464582  -4822.981670   -194.721075
PG32 -14878.996911  -3301.374512 -21610.283185   -244.941030
PJ02 -27138.737769  21188.475655  29379.893129     -5.857283
PJ03 -34197.152541  24719.058218   6239.927544     -2.072001
PR01  11093.197633  21870.019219   7034.105135     15.337251
PR02  12479.109518   6464.881310  21306.060138    -22.783603
PR03   6860.558173 -12028.007270  21474.083363     64.414779
PR04  -2478.950114 -23429.275104   9818.023201    158.995942
PR05 -10368.768592 -22162.861841  -7255.499467    100.262023
PR07  -6505.275798  12641.587247 -21133.361200     41.603944
PR08   2649.178426  23458.074819  -9572.241381    -67.371230
PR09 -25087.547559  -3736.349336   2314.374827     78.806648
PR11  -1189.012358  10902.281156  23044.309194     26.300337
PR12  17687.708985  10988.932420  14752.075615     21.604813
PR13  25064.446883   4674.456013   -778.840660    -27.200969
PR14  17726.601568  -5033.191559 -17629.623287     24.234990
PR15    246.884816 -11193.773716 -22894.282840     93.521379
PR17  18343.293849 -17246.791562  -3918.202390    564.152745
PR18  10604.432726 -19529.949230  12573.114090     44.272876
PR19  -1401.854337 -12539.216463  22165.787880   -205.098145
PR20 -16085.617956   3993.140492  19385.624280    -79.095013
PR21 -18100.091601  17852.312916   2315.557501   -336.801708
PR24  16548.791350  -4767.117292 -18789.681819    116.823309
PR25 -10689.809923  19123.579378 -13033.669091 999999.999999
EOF
